start=new Date('2023-02-06T00:00:00.000Z').valueOf();
sats=[{"RCS_SIZE":"LARGE","MEAN_ELEMENT_THEORY":"SGP4","PERIOD":"96.107","NORAD_CAT_ID":"49180","CLASSIFICATION_TYPE":"U","LAUNCH_DATE":"2021-09-14","SITE":"AFWTR","TLE_LINE1":"1 49180U 21082BC  23036.92096397 -.00000663  00000-0 -47768-4 0  9997","MEAN_MOTION_DOT":"-0.00000663","EPOCH":"2023-02-05T22:06:11.287008","APOAPSIS":"573.943","MEAN_MOTION":"14.98335865","PERIAPSIS":"570.136","INCLINATION":"69.9988","OBJECT_NAME":"STARLINK-3050","GP_ID":"224556573","COUNTRY_CODE":"US","REF_FRAME":"TEME","RA_OF_ASC_NODE":"237.9616","OBJECT_TYPE":"PAYLOAD","SEMIMAJOR_AXIS":"6950.175","BSTAR":"-0.00004776800000","MEAN_MOTION_DDOT":"0.0000000000000","MEAN_ANOMALY":"85.8941","REV_AT_EPOCH":"7871","EPHEMERIS_TYPE":"0","DECAY_DATE":null,"OBJECT_ID":"2021-082BC","TIME_SYSTEM":"UTC","ECCENTRICITY":"0.00027390","ELEMENT_SET_NO":"999","TLE_LINE2":"2 49180  69.9988 237.9616 0002739 274.1905  85.8941 14.98335865 78716","FILE":"3774172","CENTER_NAME":"EARTH","ARG_OF_PERICENTER":"274.1905"},{"SEMIMAJOR_AXIS":"6950.190","OBJECT_TYPE":"PAYLOAD","RA_OF_ASC_NODE":"258.0291","REF_FRAME":"TEME","MEAN_ANOMALY":"92.3622","BSTAR":"0.00005208100000","MEAN_MOTION_DDOT":"0.0000000000000","EPHEMERIS_TYPE":"0","DECAY_DATE":null,"OBJECT_ID":"2021-082BD","REV_AT_EPOCH":"7823","ECCENTRICITY":"0.00029950","ELEMENT_SET_NO":"999","TIME_SYSTEM":"UTC","TLE_LINE2":"2 49181  69.9985 258.0291 0002995 267.7195  92.3622 14.98330951 78237","CENTER_NAME":"EARTH","FILE":"3774172","ARG_OF_PERICENTER":"267.7195","MEAN_ELEMENT_THEORY":"SGP4","RCS_SIZE":"LARGE","NORAD_CAT_ID":"49181","PERIOD":"96.107","CLASSIFICATION_TYPE":"U","SITE":"AFWTR","LAUNCH_DATE":"2021-09-14","EPOCH":"2023-02-05T21:23:04.853760","APOAPSIS":"574.137","TLE_LINE1":"1 49181U 21082BD  23036.89102840  .00000528  00000-0  52081-4 0  9997","MEAN_MOTION_DOT":"0.00000528","MEAN_MOTION":"14.98330951","PERIAPSIS":"569.973","INCLINATION":"69.9985","COUNTRY_CODE":"US","OBJECT_NAME":"STARLINK-3059","GP_ID":"224556324"},{"TLE_LINE2":"2 49408  53.2158 251.9390 0001196  90.4477 269.6652 15.08837946 68379","CENTER_NAME":"EARTH","FILE":"3774172","ARG_OF_PERICENTER":"90.4477","REF_FRAME":"TEME","RA_OF_ASC_NODE":"251.9390","OBJECT_TYPE":"PAYLOAD","SEMIMAJOR_AXIS":"6917.887","MEAN_MOTION_DDOT":"0.0000000000000","BSTAR":"0.00007894000000","MEAN_ANOMALY":"269.6652","REV_AT_EPOCH":"6837","OBJECT_ID":"2021-104A","DECAY_DATE":null,"EPHEMERIS_TYPE":"0","TIME_SYSTEM":"UTC","ELEMENT_SET_NO":"999","ECCENTRICITY":"0.00011960","LAUNCH_DATE":"2021-11-13","SITE":"AFETR","MEAN_MOTION_DOT":"0.00000969","TLE_LINE1":"1 49408U 21104A   23036.90846946  .00000969  00000-0  78940-4 0  9999","APOAPSIS":"540.579","EPOCH":"2023-02-05T21:48:11.761344","INCLINATION":"53.2158","MEAN_MOTION":"15.08837946","PERIAPSIS":"538.924","GP_ID":"224557836","OBJECT_NAME":"STARLINK-3151","COUNTRY_CODE":"US","RCS_SIZE":"LARGE","MEAN_ELEMENT_THEORY":"SGP4","PERIOD":"95.438","NORAD_CAT_ID":"49408","CLASSIFICATION_TYPE":"U"},{"SITE":"AFETR","LAUNCH_DATE":"2021-11-13","EPOCH":"2023-02-05T20:34:00.239808","APOAPSIS":"540.562","TLE_LINE1":"1 49409U 21104B   23036.85694722  .00002207  00000-0  15667-3 0  9990","MEAN_MOTION_DOT":"0.00002207","PERIAPSIS":"538.917","MEAN_MOTION":"15.08841895","INCLINATION":"53.2124","COUNTRY_CODE":"US","OBJECT_NAME":"STARLINK-3075","GP_ID":"224558350","MEAN_ELEMENT_THEORY":"SGP4","RCS_SIZE":"LARGE","NORAD_CAT_ID":"49409","PERIOD":"95.437","CLASSIFICATION_TYPE":"U","TLE_LINE2":"2 49409  53.2124 252.1646 0001189  81.0374 279.0752 15.08841895 68378","CENTER_NAME":"EARTH","FILE":"3774172","ARG_OF_PERICENTER":"81.0374","SEMIMAJOR_AXIS":"6917.875","OBJECT_TYPE":"PAYLOAD","REF_FRAME":"TEME","RA_OF_ASC_NODE":"252.1646","MEAN_ANOMALY":"279.0752","BSTAR":"0.00015667000000","MEAN_MOTION_DDOT":"0.0000000000000","EPHEMERIS_TYPE":"0","DECAY_DATE":null,"OBJECT_ID":"2021-104B","REV_AT_EPOCH":"6837","ECCENTRICITY":"0.00011890","ELEMENT_SET_NO":"999","TIME_SYSTEM":"UTC"},{"APOAPSIS":"540.563","EPOCH":"2023-02-05T21:58:47.660160","MEAN_MOTION_DOT":"0.00001472","TLE_LINE1":"1 49410U 21104C   23036.91582940  .00001472  00000-0  11053-3 0  9995","SITE":"AFETR","LAUNCH_DATE":"2021-11-13","COUNTRY_CODE":"US","GP_ID":"224558101","OBJECT_NAME":"STARLINK-3147","INCLINATION":"53.2139","MEAN_MOTION":"15.08839204","PERIAPSIS":"538.933","NORAD_CAT_ID":"49410","PERIOD":"95.438","MEAN_ELEMENT_THEORY":"SGP4","RCS_SIZE":"LARGE","CLASSIFICATION_TYPE":"U","CENTER_NAME":"EARTH","FILE":"3774172","TLE_LINE2":"2 49410  53.2139 251.8988 0001178  83.6859 276.4267 15.08839204 68378","ARG_OF_PERICENTER":"83.6859","MEAN_ANOMALY":"276.4267","MEAN_MOTION_DDOT":"0.0000000000000","BSTAR":"0.00011053000000","OBJECT_TYPE":"PAYLOAD","SEMIMAJOR_AXIS":"6917.883","REF_FRAME":"TEME","RA_OF_ASC_NODE":"251.8988","ELEMENT_SET_NO":"999","ECCENTRICITY":"0.00011780","TIME_SYSTEM":"UTC","OBJECT_ID":"2021-104C","DECAY_DATE":null,"EPHEMERIS_TYPE":"0","REV_AT_EPOCH":"6837"},{"TLE_LINE2":"2 49411  53.2128 242.2239 0001199  84.0213 276.0916 15.08838448 68503","CENTER_NAME":"EARTH","FILE":"3774172","ARG_OF_PERICENTER":"84.0213","RA_OF_ASC_NODE":"242.2239","REF_FRAME":"TEME","SEMIMAJOR_AXIS":"6917.885","OBJECT_TYPE":"PAYLOAD","MEAN_MOTION_DDOT":"0.0000000000000","BSTAR":"0.00006930000000","MEAN_ANOMALY":"276.0916","REV_AT_EPOCH":"6850","DECAY_DATE":null,"OBJECT_ID":"2021-104D","EPHEMERIS_TYPE":"0","TIME_SYSTEM":"UTC","ELEMENT_SET_NO":"999","ECCENTRICITY":"0.00011990","LAUNCH_DATE":"2021-11-13","SITE":"AFETR","MEAN_MOTION_DOT":"0.00000815","TLE_LINE1":"1 49411U 21104D   23036.84314832  .00000815  00000-0  69300-4 0  9990","APOAPSIS":"540.580","EPOCH":"2023-02-05T20:14:08.014848","INCLINATION":"53.2128","PERIAPSIS":"538.921","MEAN_MOTION":"15.08838448","GP_ID":"224559351","OBJECT_NAME":"STARLINK-3162","COUNTRY_CODE":"US","RCS_SIZE":"LARGE","MEAN_ELEMENT_THEORY":"SGP4","PERIOD":"95.438","NORAD_CAT_ID":"49411","CLASSIFICATION_TYPE":"U"},{"DECAY_DATE":null,"OBJECT_ID":"2021-104E","EPHEMERIS_TYPE":"0","REV_AT_EPOCH":"6838","ELEMENT_SET_NO":"999","ECCENTRICITY":"0.00012500","TIME_SYSTEM":"UTC","SEMIMAJOR_AXIS":"6917.880","OBJECT_TYPE":"PAYLOAD","RA_OF_ASC_NODE":"251.8824","REF_FRAME":"TEME","MEAN_ANOMALY":"277.7047","MEAN_MOTION_DDOT":"0.0000000000000","BSTAR":"0.00014911000000","ARG_OF_PERICENTER":"82.4087","TLE_LINE2":"2 49412  53.2121 251.8824 0001250  82.4087 277.7047 15.08839981 68384","CENTER_NAME":"EARTH","FILE":"3774172","CLASSIFICATION_TYPE":"U","MEAN_ELEMENT_THEORY":"SGP4","RCS_SIZE":"LARGE","NORAD_CAT_ID":"49412","PERIOD":"95.438","INCLINATION":"53.2121","PERIAPSIS":"538.881","MEAN_MOTION":"15.08839981","COUNTRY_CODE":"US","GP_ID":"224558336","OBJECT_NAME":"STARLINK-3144","SITE":"AFETR","LAUNCH_DATE":"2021-11-13","APOAPSIS":"540.610","EPOCH":"2023-02-05T22:04:05.549088","MEAN_MOTION_DOT":"0.00002086","TLE_LINE1":"1 49412U 21104E   23036.91950867  .00002086  00000-0  14911-3 0  9992"},{"PERIOD":"95.436","NORAD_CAT_ID":"49413","RCS_SIZE":"LARGE","MEAN_ELEMENT_THEORY":"SGP4","CLASSIFICATION_TYPE":"U","TLE_LINE1":"1 49413U 21104F   23036.83945984  .00012150  00000-0  77957-3 0  9990","MEAN_MOTION_DOT":"0.00012150","EPOCH":"2023-02-05T20:08:49.330176","APOAPSIS":"540.451","LAUNCH_DATE":"2021-11-13","SITE":"AFETR","OBJECT_NAME":"STARLINK-3157","GP_ID":"224557851","COUNTRY_CODE":"US","MEAN_MOTION":"15.08866316","PERIAPSIS":"538.879","INCLINATION":"53.2130","BSTAR":"0.00077957000000","MEAN_MOTION_DDOT":"0.0000000000000","MEAN_ANOMALY":"277.9684","RA_OF_ASC_NODE":"242.2389","REF_FRAME":"TEME","SEMIMAJOR_AXIS":"6917.800","OBJECT_TYPE":"PAYLOAD","TIME_SYSTEM":"UTC","ECCENTRICITY":"0.00011360","ELEMENT_SET_NO":"999","REV_AT_EPOCH":"6850","EPHEMERIS_TYPE":"0","OBJECT_ID":"2021-104F","DECAY_DATE":null,"CENTER_NAME":"EARTH","FILE":"3774172","TLE_LINE2":"2 49413  53.2130 242.2389 0001136  82.1437 277.9684 15.08866316 68509","ARG_OF_PERICENTER":"82.1437"},{"TIME_SYSTEM":"UTC","ELEMENT_SET_NO":"999","ECCENTRICITY":"0.00012790","REV_AT_EPOCH":"6837","DECAY_DATE":null,"OBJECT_ID":"2021-104G","EPHEMERIS_TYPE":"0","MEAN_MOTION_DDOT":"0.0000000000000","BSTAR":"0.00000873120000","MEAN_ANOMALY":"278.6019","REF_FRAME":"TEME","RA_OF_ASC_NODE":"251.9155","OBJECT_TYPE":"PAYLOAD","SEMIMAJOR_AXIS":"6917.895","ARG_OF_PERICENTER":"81.5118","FILE":"3774172","CENTER_NAME":"EARTH","TLE_LINE2":"2 49414  53.2154 251.9155 0001279  81.5118 278.6019 15.08835252 68371","CLASSIFICATION_TYPE":"U","PERIOD":"95.438","NORAD_CAT_ID":"49414","RCS_SIZE":"LARGE","MEAN_ELEMENT_THEORY":"SGP4","GP_ID":"224558601","OBJECT_NAME":"STARLINK-3146","COUNTRY_CODE":"US","INCLINATION":"53.2154","MEAN_MOTION":"15.08835252","PERIAPSIS":"538.875","MEAN_MOTION_DOT":"-0.00000149","TLE_LINE1":"1 49414U 21104G   23036.91214868 -.00000149  00000-0  87312-5 0  9994","APOAPSIS":"540.645","EPOCH":"2023-02-05T21:53:29.645952","LAUNCH_DATE":"2021-11-13","SITE":"AFETR"},{"INCLINATION":"53.2128","MEAN_MOTION":"15.08841600","PERIAPSIS":"538.977","COUNTRY_CODE":"US","GP_ID":"224558853","OBJECT_NAME":"STARLINK-3159","SITE":"AFETR","LAUNCH_DATE":"2021-11-13","APOAPSIS":"540.504","EPOCH":"2023-02-05T20:03:31.957056","MEAN_MOTION_DOT":"0.00002467","TLE_LINE1":"1 49415U 21104H   23036.83578654  .00002467  00000-0  17300-3 0  9994","CLASSIFICATION_TYPE":"U","MEAN_ELEMENT_THEORY":"SGP4","RCS_SIZE":"LARGE","NORAD_CAT_ID":"49415","PERIOD":"95.437","ARG_OF_PERICENTER":"79.5240","TLE_LINE2":"2 49415  53.2128 242.2570 0001103  79.5240 280.5877 15.08841600 68497","CENTER_NAME":"EARTH","FILE":"3774172","DECAY_DATE":null,"OBJECT_ID":"2021-104H","EPHEMERIS_TYPE":"0","REV_AT_EPOCH":"6849","ELEMENT_SET_NO":"999","ECCENTRICITY":"0.00011030","TIME_SYSTEM":"UTC","OBJECT_TYPE":"PAYLOAD","SEMIMAJOR_AXIS":"6917.875","REF_FRAME":"TEME","RA_OF_ASC_NODE":"242.2570","MEAN_ANOMALY":"280.5877","MEAN_MOTION_DDOT":"0.0000000000000","BSTAR":"0.00017300000000"}];
